[{"OBJECT_NAME":"STARLINK-31824","OBJECT_ID":"2024-093Y","EPOCH":"2026-03-09T10:26:13.166304","MEAN_MOTION":15.27575791,"ECCENTRICITY":0.00023959,"INCLINATION":43.0106,"RA_OF_ASC_NODE":210.578,"ARG_OF_PERICENTER":283.6714,"MEAN_ANOMALY":76.3871,"EPHEMERIS_TYPE":0,"CLASSIFICATION_TYPE":"U","NORAD_CAT_ID":59804,"ELEMENT_SET_NO":999,"REV_AT_EPOCH":10265,"BSTAR":-4.3774509e-5,"MEAN_MOTION_DOT":-1.467e-5,"MEAN_MOTION_DDOT":0},{"OBJECT_NAME":"AL MUNTHER","OBJECT_ID":"2025-052AG","EPOCH":"2026-03-09T15:29:23.207136","MEAN_MOTION":15.28381521,"ECCENTRICITY":0.0008027,"INCLINATION":97.4001,"RA_OF_ASC_NODE":323.9152,"ARG_OF_PERICENTER":130.7043,"MEAN_ANOMALY":229.4895,"EPHEMERIS_TYPE":0,"CLASSIFICATION_TYPE":"U","NORAD_CAT_ID":63240,"ELEMENT_SET_NO":999,"REV_AT_EPOCH":5479,"BSTAR":0.00065015,"MEAN_MOTION_DOT":0.00017933,"MEAN_MOTION_DDOT":0}]
