STARLINK-31824          
1 59804U 24093Y   26068.43487461 -.00001467  00000+0 -43775-4 0  9992
2 59804  43.0106 210.5780 0002395 283.6714  76.3871 15.27575791102650
AL MUNTHER              
1 63240U 25052AG  26068.64540749  .00017933  00000+0  65015-3 0  9992
2 63240  97.4001 323.9152 0008027 130.7043 229.4895 15.28381521 54798
